NORAD_CAT_ID,OBJECT_NAME,OBJECT_TYPE,EPOCH,MEAN_MOTION,ECCENTRICITY,INCLINATION,RA_OF_ASC_NODE,ARG_OF_PERICENTER,MEAN_ANOMALY,BSTAR,MEAN_MOTION_DOT,MEAN_MOTION_DDOT,TLE_LINE0,TLE_LINE1,TLE_LINE2,SEMIMAJOR_AXIS,PERIOD,APOGEE,PERIGEE,DECAYED
52371.0,STARLINK-3798,PAYLOAD,2023-03-26 21:59:06,15.08816935,0.0001277,53.2157,351.9363,97.2881,262.8256,0.001365,0.00021489,0.0,0 STARLINK-3798,1 52371U 22045AS  23085.91604711  .00021489  00000-0  13650-2 0  9999,2 52371  53.2157 351.9363 0001277  97.2881 262.8256 15.08816935 53055,6917.951,95.439,540.699,538.932,0.0
52371.0,STARLINK-3798,PAYLOAD,2023-03-27 02:45:16,15.08835154,0.0001405,53.2162,351.0453,83.2751,276.8401,0.0019566,0.00030984,0.0,0 STARLINK-3798,1 52371U 22045AS  23086.11476874  .00030984  00000-0  19566-2 0  9991,2 52371  53.2162 351.0453 0001405  83.2751 276.8401 15.08835154 53080,6917.895,95.438,540.732,538.788,0.0
52371.0,STARLINK-3798,PAYLOAD,2023-03-27 21:49:53,15.08848807,0.000141,53.2164,347.4753,86.5346,273.5808,0.0007665,0.00011935,0.0,0 STARLINK-3798,1 52371U 22045AS  23086.90964501  .00011935  00000-0  76650-3 0  9990,2 52371  53.2164 347.4753 0001410  86.5346 273.5808 15.08848807 53204,6917.853,95.437,540.694,538.743,0.0
52371.0,STARLINK-3798,PAYLOAD,2023-03-28 01:00:39,15.08861544,0.0001329,53.2167,346.8812,82.195,277.9193,0.00098731,0.00015469,0.0,0 STARLINK-3798,1 52371U 22045AS  23087.04212299  .00015469  00000-0  98731-3 0  9996,2 52371  53.2167 346.8812 0001329  82.1950 277.9193 15.08861544 53228,6917.815,95.436,540.599,538.76,0.0
52371.0,STARLINK-3798,PAYLOAD,2023-03-28 21:40:39,15.0885285,0.0001166,53.2168,343.0154,86.4401,273.6725,0.00040697,6.197e-05,0.0,0 STARLINK-3798,1 52371U 22045AS  23087.90323908  .00006197  00000-0  40697-3 0  9997,2 52371  53.2168 343.0154 0001166  86.4401 273.6725 15.08852850 53352,6917.841,95.437,540.513,538.899,0.0
52371.0,STARLINK-3798,PAYLOAD,2023-03-28 23:16:02,15.08855256,0.0001259,53.2168,342.7179,86.2602,273.8534,0.00040662,6.192e-05,0.0,0 STARLINK-3798,1 52371U 22045AS  23087.96947831  .00006192  00000-0  40662-3 0  9997,2 52371  53.2168 342.7179 0001259  86.2602 273.8534 15.08855256 53363,6917.834,95.437,540.57,538.828,0.0
52371.0,STARLINK-3798,PAYLOAD,2023-03-29 02:26:48,15.08860299,0.0001327,53.2168,342.1215,95.638,264.4763,0.00065092,0.00010092,0.0,0 STARLINK-3798,1 52371U 22045AS  23088.10195552  .00010092  00000-0  65092-3 0  9997,2 52371  53.2168 342.1215 0001327  95.6380 264.4763 15.08860299 53386,6917.818,95.436,540.601,538.765,0.0
52371.0,STARLINK-3798,PAYLOAD,2023-03-29 23:06:50,15.0884116,0.0001385,53.2171,338.2576,83.5475,276.5675,0.00032576,4.9e-05,0.0,0 STARLINK-3798,1 52371U 22045AS  23088.96308341  .00004900  00000-0  32576-3 0  9995,2 52371  53.2171 338.2576 0001385  83.5475 276.5675 15.08841160 53518,6917.877,95.437,540.7,538.784,0.0
52371.0,STARLINK-3798,PAYLOAD,2023-03-30 02:17:36,15.08845654,0.0001412,53.2169,337.6609,87.1754,272.9399,0.00055022,8.481e-05,0.0,0 STARLINK-3798,1 52371U 22045AS  23089.09556309  .00008481  00000-0  55022-3 0  9998,2 52371  53.2169 337.6609 0001412  87.1754 272.9399 15.08845654 53533,6917.863,95.437,540.705,538.751,0.0
52371.0,STARLINK-3798,PAYLOAD,2023-03-31 16:26:51,15.08840311,0.0001167,53.2165,330.5227,109.6066,250.5053,0.00017707,2.531e-05,0.0,0 STARLINK-3798,1 52371U 22045AS  23090.68532373  .00002531  00000-0  17707-3 0  9998,2 52371  53.2165 330.5227 0001167 109.6066 250.5053 15.08840311 53770,6917.879,95.438,540.552,538.937,0.0
52371.0,STARLINK-3798,PAYLOAD,2023-04-01 11:31:30,15.08826196,5.51e-05,53.2167,326.9551,76.5947,283.5106,-0.00020318,-3.518e-05,0.0,0 STARLINK-3798,1 52371U 22045AS  23091.48021307 -.00003518  00000-0 -20318-3 0  9997,2 52371  53.2167 326.9551 0000551  76.5947 283.5106 15.08826196 53890,6917.923,95.438,540.169,539.406,0.0
52371.0,STARLINK-3798,PAYLOAD,2023-04-01 16:17:39,15.08824386,8.01e-05,53.2164,326.0649,115.8835,244.224,-1.5568e-06,-3.12e-06,0.0,0 STARLINK-3798,1 52371U 22045AS  23091.67893075 -.00000312  00000-0 -15568-5 0  9999,2 52371  53.2164 326.0649 0000801 115.8835 244.2240 15.08824386 53923,6917.928,95.439,540.347,539.239,0.0
52371.0,STARLINK-3798,PAYLOAD,2023-04-01 19:28:26,15.08826973,0.000112,53.216,325.471,118.3775,241.733,0.00017375,2.478e-05,0.0,0 STARLINK-3798,1 52371U 22045AS  23091.81141207  .00002478  00000-0  17375-3 0  9997,2 52371  53.2160 325.4710 0001120 118.3775 241.7330 15.08826973 53945,6917.92,95.438,540.56,539.01,0.0
52371.0,STARLINK-3798,PAYLOAD,2023-04-02 09:46:54,15.08846304,0.0001021,53.2156,322.795,121.6744,238.4348,0.00056683,8.746e-05,0.0,0 STARLINK-3798,1 52371U 22045AS  23092.40757176  .00008746  00000-0  56683-3 0  9990,2 52371  53.2156 322.7950 0001021 121.6744 238.4348 15.08846304 54032,6917.861,95.437,540.432,539.02,0.0
52371.0,STARLINK-3798,PAYLOAD,2023-04-02 22:29:58,15.08858297,0.0001054,53.2154,320.4163,131.1492,228.9592,0.00075802,0.00011803,0.0,0 STARLINK-3798,1 52371U 22045AS  23092.93748784  .00011803  00000-0  75802-3 0  9995,2 52371  53.2154 320.4163 0001054 131.1492 228.9592 15.08858297 54111,6917.824,95.436,540.419,538.96,0.0
52371.0,STARLINK-3798,PAYLOAD,2023-04-03 00:05:21,15.08862215,0.0001041,53.2153,320.1186,129.1387,230.9698,0.00083294,0.00013001,0.0,0 STARLINK-3798,1 52371U 22045AS  23093.00372648  .00013001  00000-0  83294-3 0  9992,2 52371  53.2153 320.1186 0001041 129.1387 230.9698 15.08862215 54124,6917.812,95.436,540.398,538.957,0.0
52371.0,STARLINK-3798,PAYLOAD,2023-04-03 17:34:36,15.08848353,0.0001172,53.2145,316.8462,118.4878,241.6232,0.00033117,4.988e-05,0.0,0 STARLINK-3798,1 52371U 22045AS  23093.73236740  .00004988  00000-0  33117-3 0  9997,2 52371  53.2145 316.8462 0001172 118.4878 241.6232 15.08848353 54237,6917.855,95.437,540.531,538.909,0.0
52371.0,STARLINK-3798,PAYLOAD,2023-04-04 06:17:41,15.08838702,9.62e-05,53.2151,314.4661,107.2209,252.8888,7.6525e-05,9.3e-06,0.0,0 STARLINK-3798,1 52371U 22045AS  23094.26228821  .00000930  00000-0  76525-4 0  9991,2 52371  53.2151 314.4661 0000962 107.2209 252.8888 15.08838702 54316,6917.884,95.438,540.415,539.084,0.0
52371.0,STARLINK-3798,PAYLOAD,2023-04-04 20:36:10,15.08838159,9.32e-05,53.2151,311.7897,128.1551,231.9526,5.7578e-05,6.29e-06,0.0,0 STARLINK-3798,1 52371U 22045AS  23094.85844938  .00000629  00000-0  57578-4 0  9991,2 52371  53.2151 311.7897 0000932 128.1551 231.9526 15.08838159 54409,6917.886,95.438,540.396,539.106,0.0
52371.0,STARLINK-3798,PAYLOAD,2023-04-04 23:46:56,15.08841719,0.0001091,53.2156,311.1965,86.5835,273.5281,7.653e-05,9.3e-06,0.0,0 STARLINK-3798,1 52371U 22045AS  23094.99092973  .00000930  00000-0  76530-4 0  9994,2 52371  53.2156 311.1965 0001091  86.5835 273.5281 15.08841719 54421,6917.875,95.437,540.495,538.985,0.0
52371.0,STARLINK-3798,PAYLOAD,2023-04-05 20:26:56,15.08862052,8.39e-05,53.2152,307.3304,98.913,261.1957,0.00049906,7.668e-05,0.0,0 STARLINK-3798,1 52371U 22045AS  23095.85203990  .00007668  00000-0  49906-3 0  9994,2 52371  53.2152 307.3304 0000839  98.9130 261.1957 15.08862052 54555,6917.813,95.436,540.258,539.098,0.0
52371.0,STARLINK-3798,PAYLOAD,2023-04-06 09:10:01,15.08848564,6.03e-05,53.2149,304.9516,126.7474,233.3573,0.00017677,2.527e-05,0.0,0 STARLINK-3798,1 52371U 22045AS  23096.38196124  .00002527  00000-0  17677-3 0  9992,2 52371  53.2149 304.9516 0000603 126.7474 233.3573 15.08848564 54635,6917.854,95.437,540.136,539.302,0.0
52371.0,STARLINK-3798,PAYLOAD,2023-04-06 13:56:11,15.08830762,4.06e-05,53.2153,304.0596,16.4731,343.6274,-0.00012608,-2.293e-05,0.0,0 STARLINK-3798,1 52371U 22045AS  23096.58068828 -.00002293  00000-0 -12608-3 0  9994,2 52371  53.2153 304.0596 0000406  16.4731 343.6274 15.08830762 54668,6917.909,95.438,540.054,539.493,0.0
52371.0,STARLINK-3798,PAYLOAD,2023-04-06 15:31:34,15.08835243,8.13e-05,53.2147,303.7636,99.7562,260.3522,-0.00016823,-2.964e-05,0.0,0 STARLINK-3798,1 52371U 22045AS  23096.64692514 -.00002964  00000-0 -16823-3 0  9994,2 52371  53.2147 303.7636 0000813  99.7562 260.3522 15.08835243 54671,6917.895,95.438,540.322,539.198,0.0
52371.0,STARLINK-3798,PAYLOAD,2023-04-07 09:00:49,15.08839148,7.65e-05,53.2149,300.4929,75.3614,284.7463,9.1234e-05,1.165e-05,0.0,0 STARLINK-3798,1 52371U 22045AS  23097.37556779  .00001165  00000-0  91234-4 0  9997,2 52371  53.2149 300.4929 0000765  75.3614 284.7463 15.08839148 54780,6917.883,95.438,540.277,539.219,0.0
52371.0,STARLINK-3798,PAYLOAD,2023-04-07 20:08:31,15.08837588,5.98e-05,53.2155,298.4114,92.6843,267.4218,0.0001917,2.764e-05,0.0,0 STARLINK-3798,1 52371U 22045AS  23097.83924978  .00002764  00000-0  19170-3 0  9992,2 52371  53.2155 298.4114 0000598  92.6843 267.4218 15.08837588 54859,6917.888,95.438,540.166,539.339,0.0
52371.0,STARLINK-3798,PAYLOAD,2023-04-08 19:59:18,15.08839335,7.32e-05,53.215,293.9496,93.2593,266.8483,0.0002441,3.599e-05,0.0,0 STARLINK-3798,1 52371U 22045AS  23098.83285402  .00003599  00000-0  24410-3 0  9995,2 52371  53.2150 293.9496 0000732  93.2593 266.8483 15.08839335 55003,6917.882,95.438,540.254,539.241,0.0
52371.0,STARLINK-3798,PAYLOAD,2023-04-09 11:53:10,15.08832476,4.69e-05,53.2159,290.9764,126.3764,233.7271,5.7051e-06,-1.97e-06,0.0,0 STARLINK-3798,1 52371U 22045AS  23099.49525626 -.00000197  00000-0  57051-5 0  9994,2 52371  53.2159 290.9764 0000469 126.3764 233.7271 15.08832476 55100,6917.903,95.438,540.093,539.444,0.0
52371.0,STARLINK-3798,PAYLOAD,2023-04-09 19:50:05,15.08844023,7.84e-05,53.2156,289.4889,97.9843,262.1238,0.00022365,3.274e-05,0.0,0 STARLINK-3798,1 52371U 22045AS  23099.82645385  .00003274  00000-0  22365-3 0  9992,2 52371  53.2156 289.4889 0000784  97.9843 262.1238 15.08844023 55154,6917.868,95.437,540.275,539.191,0.0
52371.0,STARLINK-3798,PAYLOAD,2023-04-10 05:22:24,15.08845658,9.38e-05,53.2154,287.7046,95.9324,264.1775,0.00027492,4.091e-05,0.0,0 STARLINK-3798,1 52371U 22045AS  23100.22389410  .00004091  00000-0  27492-3 0  9997,2 52371  53.2154 287.7046 0000938  95.9324 264.1775 15.08845658 55211,6917.863,95.437,540.377,539.079,0.0
